OBJECT_NAME,OBJECT_ID,EPOCH,MEAN_MOTION,ECCENTRICITY,INCLINATION,RA_OF_ASC_NODE,ARG_OF_PERICENTER,MEAN_ANOMALY,EPHEMERIS_TYPE,CLASSIFICATION_TYPE,NORAD_CAT_ID,ELEMENT_SET_NO,REV_AT_EPOCH,BSTAR,MEAN_MOTION_DOT,MEAN_MOTION_DDOT
COSMOS 2436 [GLONASS-M],2007-065C,2024-10-09T08:35:50.091360,2.13100035,0.0016726,64.3270,212.7738,359.4427,111.6235,0,U,32395,999,13060,0,2.6E-07,0
THURAYA-3,2008-001A,2024-10-09T08:24:21.316608,1.00270511,0.0002198,5.0082,33.2925,164.6118,45.1611,0,U,32404,999,6131,0,-2.93E-06,0
THOR 5,2008-006A,2024-10-09T13:39:51.465024,1.00272358,0.0002433,0.0125,227.8229,337.0945,17.9865,0,U,32487,999,6114,0,-2E-08,0
AMC-14,2008-011A,2024-10-08T23:26:23.518176,1.00275043,0.0033561,23.2387,27.9311,358.3598,0.8565,0,U,32708,999,6198,0,8.2E-07,0
NAVSTAR 62 (USA 201),2008-012A,2024-10-07T21:31:03.880416,2.00571371,0.0189574,54.4496,174.5585,240.1048,118.0754,0,U,32711,999,12137,0,2.3E-07,0
DIRECTV 11,2008-013A,2024-10-09T09:10:48.448416,1.00269587,0.0000665,0.0437,27.5142,83.3676,306.1393,0,U,32729,999,3941,0,-1.18E-06,0
ICO G1,2008-016A,2024-10-09T09:12:33.539328,1.00278276,0.0002312,5.0799,35.7375,164.2558,223.8053,0,U,32763,999,6037,0,-1.63E-06,0
VINASAT-1,2008-018A,2024-10-09T10:16:59.368224,1.00270034,0.0002132,0.0089,254.3472,327.3614,83.0454,0,U,32767,999,6041,0,-3.21E-06,0
STAR ONE C2,2008-018B,2024-10-09T09:20:33.952704,1.00272084,0.0002662,0.0405,22.2102,172.4506,259.0075,0,U,32768,999,6048,0,-2.69E-06,0
CARTOSAT-2A,2008-021A,2024-10-09T12:47:56.884992,14.78709127,0.0011236,97.8525,339.3344,313.3195,46.7078,0,U,32783,999,88781,4.9114E-04,3.557E-05,0
CUTE-1.7+APD II (CO-65),2008-021C,2024-10-09T04:35:57.762528,14.99207164,0.0007901,97.7703,247.8084,321.3268,38.7388,0,U,32785,999,89261,1.2893E-03,1.5682E-04,0
AAUSAT-II,2008-021F,2024-10-09T09:59:33.894528,15.27388965,0.0008744,97.6035,264.7226,111.8279,248.3890,0,U,32788,999,89569,3.5525E-03,9.6412E-04,0
CANX-2,2008-021H,2024-10-08T20:18:38.390688,14.97324327,0.0009881,97.7817,246.1046,327.2122,32.8486,0,U,32790,999,89236,1.4224E-03,1.6491E-04,0
SEEDS II (CO-66),2008-021J,2024-10-08T21:58:13.972800,15.08073473,0.0001795,97.7041,253.8099,312.6538,47.4539,0,U,32791,999,89371,2.091E-03,3.2293E-04,0
AMOS-3,2008-022A,2024-10-09T07:55:04.803744,1.00270806,0.0002407,0.0246,245.1683,307.0515,300.8953,0,U,32794,999,7616,0,-2.7E-07,0
GALAXY 18 (G-18),2008-024A,2024-10-09T09:04:02.252640,1.00270345,0.0003093,0.0159,253.2068,309.3158,188.9821,0,U,32951,999,3967,0,3.3E-07,0
YUBILEINY (RS-30),2008-025A,2024-10-09T12:21:13.652640,12.43150043,0.0019311,82.5087,18.3677,212.6010,147.3879,0,U,32953,999,74333,3.5098E-04,5.9E-07,0
COSMOS 2437,2008-025B,2024-10-09T13:41:26.058336,12.42741276,0.0020037,82.5069,20.1491,229.6935,141.2835,0,U,32954,999,74290,2.9897E-04,5.1E-07,0
COSMOS 2438,2008-025C,2024-10-09T13:07:15.855456,12.43349066,0.002111,82.5072,15.9573,205.8745,154.1281,0,U,32955,999,74332,2.6355E-04,4.7E-07,0
COSMOS 2439,2008-025D,2024-10-09T12:51:21.924288,12.43050172,0.0020555,82.5119,20.4672,216.0424,143.9271,0,U,32956,999,74322,2.2265E-04,4.1E-07,0
FENGYUN 3A,2008-026A,2024-10-09T11:04:25.458528,14.19224655,0.000991,98.6152,227.3342,100.9331,259.2960,0,U,32958,999,84805,4.6984E-04,9.42E-06,0
ZHONGXING-9,2008-028A,2024-10-09T10:05:36.280320,1.00268423,0.000414,0.0249,247.8086,317.4599,56.8787,0,U,33051,999,5986,0,-2.4E-06,0
FGRST (GLAST),2008-029A,2024-10-09T00:02:41.214624,15.18277060,0.0009478,25.5803,146.9205,284.4871,75.4614,0,U,33053,999,90188,5.0326E-04,1.0947E-04,0
SKYNET 5C,2008-030A,2024-10-09T07:51:04.597056,1.00272032,0.0003595,2.1970,84.1098,112.4926,281.8326,0,U,33055,999,5978,0,-1.31E-06,0
TURKSAT 3A,2008-030B,2024-10-09T04:42:17.341056,1.00270960,0.0004581,0.0523,106.6759,70.4116,313.8038,0,U,33056,999,4618,0,1.54E-06,0
INTELSAT 25 (IS-25),2008-034A,2024-10-09T09:30:11.951424,1.00272067,0.0002935,1.1094,87.8484,108.3907,293.3517,0,U,33153,999,5952,0,-2.15E-06,0
BADR-6,2008-034B,2024-10-09T06:20:44.928960,1.00271793,0.0003536,1.2491,85.9483,85.2113,328.6590,0,U,33154,999,5958,0,1.53E-06,0
ECHOSTAR 11,2008-035A,2024-10-09T09:07:40.787616,1.00271998,0.0002619,0.0480,81.0604,107.8574,216.5137,0,U,33207,999,4503,0,-4.9E-07,0
SUPERBIRD-C2,2008-038A,2024-10-09T13:12:34.358688,1.00272888,0.0001384,0.7616,89.1260,126.4219,145.2254,0,U,33274,999,9955,0,-2.43E-06,0
AMC-21,2008-038B,2024-10-09T13:03:33.600960,1.00271311,0.0002869,1.3481,88.2025,109.6486,251.8081,0,U,33275,999,5932,0,4.4E-07,0
INMARSAT 4-F3,2008-039A,2024-10-09T09:11:10.967712,1.00271177,0.0002949,3.7916,28.2819,181.9900,208.0416,0,U,33278,999,4037,0,-1.31E-06,0
HUANJING 1A (HJ-1A),2008-041A,2024-10-09T12:45:09.974880,14.80904151,0.0020006,97.6357,284.9795,3.3016,356.8325,0,U,33320,999,86717,6.7318E-04,5.172E-05,0
HUANJING 1B (HJ-1B),2008-041B,2024-10-09T12:29:41.812512,14.80925954,0.0039162,97.6288,289.4614,44.1968,316.2362,0,U,33321,999,86720,5.5071E-04,4.265E-05,0
GEOEYE 1,2008-042A,2024-10-09T12:53:21.679872,14.64300132,0.0005448,98.1243,354.4419,179.2404,180.8808,0,U,33331,999,86003,5.4924E-04,2.851E-05,0
NIMIQ 4,2008-044A,2024-10-09T09:15:41.200128,1.00272626,0.0001556,0.0122,219.0863,341.6640,234.6841,0,U,33373,999,5880,0,-2.13E-06,0
GALAXY 19 (G-19),2008-045A,2024-10-09T12:12:11.148768,1.00270487,0.0002718,0.0291,264.7395,283.0540,276.8860,0,U,33376,999,5873,0,-1.32E-06,0
THEOS,2008-049A,2024-10-09T12:26:33.997056,14.20058171,0.0000967,98.6455,346.8773,95.7791,264.3496,0,U,33396,999,83060,2.3053E-04,4.48E-06,0
SHIJIAN-6 03A (SJ-6 03A),2008-053A,2024-10-09T13:05:35.493216,15.06216149,0.0012637,97.8837,286.9504,324.0334,36.0040,0,U,33408,999,86990,1.0676E-03,1.5637E-04,0
SHIJIAN-6 03B (SJ-6 03B),2008-053B,2024-10-09T13:49:10.905888,15.00045952,0.001645,97.8921,282.9304,299.9799,59.9790,0,U,33409,999,87030,3.6907E-04,4.545E-05,0
COSMO-SKYMED 3,2008-054A,2024-10-09T13:11:07.380672,14.99526565,0.0016593,97.8659,121.3178,189.9297,170.1600,0,U,33412,999,86441,9.5067E-04,1.1661E-04,0
SHIYAN 3 (SY-3),2008-056A,2024-10-09T12:48:09.971136,14.30424689,0.0014484,98.6625,303.3375,140.0862,220.1388,0,U,33433,999,83077,2.8946E-04,7.1E-06,0
CHUANGXIN 1-02 (CX-1-02),2008-056B,2024-10-09T14:02:24.400896,14.29894625,0.0015017,98.6694,303.2033,143.5203,216.7005,0,U,33434,999,83063,2.1081E-04,4.99E-06,0
ASTRA 1M,2008-057A,2024-10-09T09:30:42.670080,1.00273065,0.0005273,0.0623,79.8222,94.0302,6.5307,0,U,33436,999,3956,0,1.28E-06,0
YAOGAN-4,2008-061A,2024-10-09T13:00:11.316960,14.80614428,0.0013041,97.8829,213.3158,275.3268,84.6457,0,U,33446,999,85447,6.3291E-04,4.814E-05,0
EUTELSAT HOTBIRD 13C,2008-065A,2024-10-09T09:35:34.728864,1.00271630,0.0005025,1.3541,86.1354,122.9305,300.8540,0,U,33459,999,4117,0,-9.2E-07,0
GOSAT (IBUKI),2009-002A,2024-10-09T14:15:49.581504,14.67545492,0.0001196,98.0473,33.0206,107.7673,252.3662,0,U,33492,999,84117,4.7377E-04,2.64E-05,0
STARS (KUKAI),2009-002G,2024-10-09T08:18:45.564480,14.87543211,0.0011283,98.1132,199.9318,43.8844,316.3266,0,U,33498,999,84663,1.9315E-03,1.7528E-04,0
KKS-1 (KISEKI),2009-002H,2024-10-09T12:55:38.477856,14.79737753,0.0009837,98.1254,186.4638,116.1748,244.0476,0,U,33499,999,84502,8.4301E-04,6.292E-05,0
NOAA 19,2009-005A,2024-10-09T12:17:32.897184,14.13148276,0.0013205,99.0341,340.4571,333.6703,26.3796,0,U,33591,999,80777,4.1748E-04,7.36E-06,0
EXPRESS-AM44,2009-007A,2024-10-09T09:36:04.754592,1.00271917,0.0004042,1.8673,85.8848,110.2900,315.3911,0,U,33595,999,4611,0,-8E-07,0
NSS-9,2009-008A,2024-10-09T13:40:56.803296,1.00271297,0.0002142,0.0524,59.3210,124.2851,223.3984,0,U,33749,999,5734,0,7.9E-07,0
EUTELSAT 33E,2009-008B,2024-10-09T09:57:47.666592,1.00271029,0.0004984,1.0748,87.4589,112.7856,232.3377,0,U,33750,999,5726,0,-1.41E-06,0
SPIRALE A,2009-008C,2024-10-09T02:33:09.183456,4.60172783,0.5557696,1.9757,161.5956,70.4942,339.7754,0,U,33751,999,23364,3.3598E-03,4.055E-05,0
SPIRALE B,2009-008D,2024-10-07T22:32:51.569664,2.96391916,0.6764961,2.0645,10.8795,0.8216,359.9183,0,U,33752,999,14942,5.5756E-03,3.3704E-04,0
TELSTAR 11N,2009-009A,2024-10-09T09:28:26.859648,1.00273262,0.0002378,0.0182,219.5030,316.1460,307.4444,0,U,34111,999,4007,0,-2.43E-06,0
NAVSTAR 63 (USA 203),2009-014A,2024-10-08T10:36:54.296640,2.00570908,0.0133448,54.6418,235.4044,58.8310,38.2666,0,U,34661,999,11391,0,3.1E-07,0
WGS F2 (USA 204),2009-017A,2024-10-09T05:57:42.660288,1.00267550,0.0000937,0.0112,194.5595,110.2649,220.4460,0,U,34713,999,3944,0,7.6E-07,0
YAOGAN-6,2009-021A,2024-10-09T11:06:10.832832,15.56281365,0.0017677,97.1845,250.7304,111.9899,248.3237,0,U,34839,999,86115,9.459E-04,6.7274E-04,0
SES-7 (PROTOSTAR 2),2009-027A,2024-10-09T10:10:14.019168,1.00271101,0.000161,0.0955,78.0276,172.0609,29.2927,0,U,34941,999,5645,0,-3.38E-06,0
MEASAT-3A,2009-032A,2024-10-09T08:52:21.266976,1.00271522,0.0001973,0.0171,202.2614,31.6034,77.6732,0,U,35362,999,185,0,-1.03E-06,0
GOES 14,2009-033A,2024-10-09T12:26:46.266720,1.00270617,0.0003832,0.0805,93.3338,83.5494,279.9337,0,U,35491,999,41,0,-5.9E-07,0
FM-5,2009-034A,2024-10-09T09:14:26.135808,1.00270362,0.0000602,0.0251,262.7772,233.1144,295.0881,0,U,35493,999,4046,0,-1.92E-06,0
TERRESTAR-1,2009-035A,2024-10-09T09:42:08.807904,1.00271910,0.000289,4.6488,47.9692,157.8725,207.2292,0,U,35496,999,5596,0,-4.7E-07,0
COSMOS 2451,2009-036A,2024-10-09T13:49:18.246432,12.40852649,0.0007651,82.4831,114.3490,105.6003,254.5920,0,U,35498,999,69129,1.6101E-04,3.2E-07,0
COSMOS 2453,2009-036C,2024-10-09T13:11:50.681760,12.41500473,0.0007805,82.4831,110.3578,68.2061,291.9848,0,U,35500,999,69158,2.0521E-04,3.8E-07,0
DEIMOS-1,2009-041A,2024-10-09T13:12:30.652992,14.73750230,0.0002258,97.6851,99.4111,53.8504,306.2914,0,U,35681,999,81615,4.0989E-04,2.632E-05,0
DUBAISAT-1,2009-041B,2024-10-09T08:18:47.402208,14.72410146,0.0010075,97.9238,56.5132,245.1612,114.8548,0,U,35682,999,81437,1.059E-03,6.671E-05,0
UK-DMC 2,2009-041C,2024-10-09T13:14:33.255456,14.73952887,0.0001447,97.7984,66.6409,92.6607,267.4768,0,U,35683,999,81580,6.4175E-04,4.167E-05,0
